NORAD_CAT_ID,OBJECT_NAME,OBJECT_TYPE,EPOCH,MEAN_MOTION,ECCENTRICITY,INCLINATION,RA_OF_ASC_NODE,ARG_OF_PERICENTER,MEAN_ANOMALY,BSTAR,MEAN_MOTION_DOT,MEAN_MOTION_DDOT,TLE_LINE0,TLE_LINE1,TLE_LINE2,SEMIMAJOR_AXIS,PERIOD,APOGEE,PERIGEE,DECAYED
54064.0,STARLINK-5172,PAYLOAD,2024-07-07 21:24:32,15.08838399,0.0001452,53.2174,156.7899,92.8022,267.3137,9.6747e-05,1.252e-05,0.0,0 STARLINK-5172,1 54064U 22136P   24189.89204729  .00001252  00000-0  96747-4 0  9995,2 54064  53.2174 156.7899 0001452  92.8022 267.3137 15.08838399 95897,6917.885,95.438,540.755,538.746,0.0
54064.0,STARLINK-5172,PAYLOAD,2024-07-08 06:56:51,15.08842571,0.0001473,53.2172,155.004,84.9702,275.1458,7.3262e-05,8.78e-06,0.0,0 STARLINK-5172,1 54064U 22136P   24190.28948595  .00000878  00000-0  73262-4 0  9996,2 54064  53.2172 155.0040 0001473  84.9702 275.1458 15.08842571 95479,6917.873,95.437,540.757,538.719,0.0
54064.0,STARLINK-5172,PAYLOAD,2024-07-08 21:15:19,15.08842702,0.0001352,53.2163,152.3274,90.7798,269.3349,0.00012624,1.722e-05,0.0,0 STARLINK-5172,1 54064U 22136P   24190.88564321  .00001722  00000-0  12624-3 0  9996,2 54064  53.2163 152.3274 0001352  90.7798 269.3349 15.08842702 95564,6917.872,95.437,540.672,538.802,0.0
54064.0,STARLINK-5172,PAYLOAD,2024-07-09 05:12:15,15.08835518,0.0001406,53.2164,150.8414,91.0054,269.1099,3.3763e-05,2.49e-06,0.0,0 STARLINK-5172,1 54064U 22136P   24191.21685178  .00000249  00000-0  33763-4 0  9999,2 54064  53.2164 150.8414 0001406  91.0054 269.1099 15.08835518 96099,6917.894,95.438,540.732,538.786,0.0
54064.0,STARLINK-5172,PAYLOAD,2024-07-09 14:44:34,15.08843241,0.0001378,53.2162,149.0567,92.3976,267.7173,8.6811e-05,1.094e-05,0.0,0 STARLINK-5172,1 54064U 22136P   24191.61428488  .00001094  00000-0  86811-4 0  9993,2 54064  53.2162 149.0567 0001378  92.3976 267.7173 15.08843241 95673,6917.87,95.437,540.689,538.782,0.0
54064.0,STARLINK-5172,PAYLOAD,2024-07-10 03:27:39,15.088387,0.0001419,53.2165,146.6781,90.2845,269.831,-1.0392e-05,-4.53e-06,0.0,0 STARLINK-5172,1 54064U 22136P   24192.14421184 -.00000453  00000-0 -10392-4 0  9999,2 54064  53.2165 146.6781 0001419  90.2845 269.8310 15.08838700 96238,6917.884,95.438,540.731,538.768,0.0
54064.0,STARLINK-5172,PAYLOAD,2024-07-10 14:35:21,15.08837907,0.0001605,53.2168,144.5951,99.4004,260.7169,-1.9447e-05,-5.97e-06,0.0,0 STARLINK-5172,1 54064U 22136P   24192.60789270 -.00000597  00000-0 -19447-4 0  9992,2 54064  53.2168 144.5951 0001605  99.4004 260.7169 15.08837907 95826,6917.887,95.438,540.862,538.641,0.0
54064.0,STARLINK-5172,PAYLOAD,2024-07-10 20:56:54,15.0883676,0.0001568,53.2153,143.4063,97.3991,262.7179,7.3058e-05,8.75e-06,0.0,0 STARLINK-5172,1 54064U 22136P   24192.87285040  .00000875  00000-0  73058-4 0  9992,2 54064  53.2153 143.4063 0001568  97.3991 262.7179 15.08836760 95865,6917.89,95.438,540.84,538.671,0.0
54064.0,STARLINK-5172,PAYLOAD,2024-07-11 06:29:12,15.08841639,0.0001419,53.2165,141.6225,98.0598,262.0555,4.4039e-05,4.13e-06,0.0,0 STARLINK-5172,1 54064U 22136P   24193.27028891  .00000413  00000-0  44039-4 0  9991,2 54064  53.2165 141.6225 0001419  98.0598 262.0555 15.08841639 95923,6917.875,95.437,540.722,538.759,0.0
54064.0,STARLINK-5172,PAYLOAD,2024-07-12 03:09:14,15.08835265,0.0001425,53.2163,137.7566,98.7147,261.4007,5.742e-05,6.26e-06,0.0,0 STARLINK-5172,1 54064U 22136P   24194.13141342  .00000626  00000-0  57420-4 0  9998,2 54064  53.2163 137.7566 0001425  98.7147 261.4007 15.08835265 96530,6917.895,95.438,540.746,538.774,0.0
54064.0,STARLINK-5172,PAYLOAD,2024-07-12 12:41:32,15.08845818,0.0001373,53.2165,135.9728,95.9868,264.1281,0.00011054,1.472e-05,0.0,0 STARLINK-5172,1 54064U 22136P   24194.52884565  .00001472  00000-0  11054-3 0  9994,2 54064  53.2165 135.9728 0001373  95.9868 264.1281 15.08845818 96598,6917.863,95.437,540.677,538.778,0.0
54064.0,STARLINK-5172,PAYLOAD,2024-07-13 03:00:01,15.08831167,0.0001387,53.2173,133.3028,93.9667,266.1483,4.5403e-05,4.35e-06,0.0,0 STARLINK-5172,1 54064U 22136P   24195.12501924  .00000435  00000-0  45403-4 0  9990,2 54064  53.2173 133.3028 0001387  93.9667 266.1483 15.08831167 96680,6917.907,95.438,540.732,538.813,0.0
54064.0,STARLINK-5172,PAYLOAD,2024-07-13 12:32:19,15.08848235,0.0001354,53.2169,131.513,91.2558,268.8589,8.8784e-05,1.126e-05,0.0,0 STARLINK-5172,1 54064U 22136P   24195.52244656  .00001126  00000-0  88784-4 0  9997,2 54064  53.2169 131.5130 0001354  91.2558 268.8589 15.08848235 96740,6917.855,95.437,540.657,538.784,0.0
54064.0,STARLINK-5172,PAYLOAD,2024-07-14 02:50:48,15.08837746,0.0001218,53.2163,128.8384,97.7201,262.3929,1.9301e-06,-2.57e-06,0.0,0 STARLINK-5172,1 54064U 22136P   24196.11861717 -.00000257  00000-0  19301-5 0  9991,2 54064  53.2163 128.8384 0001218  97.7201 262.3929 15.08837746 96831,6917.887,95.438,540.595,538.91,0.0
54064.0,STARLINK-5172,PAYLOAD,2024-07-14 12:23:06,15.08847876,0.000142,53.2179,127.0544,92.4832,267.6322,7.3483e-05,8.82e-06,0.0,0 STARLINK-5172,1 54064U 22136P   24196.51604894  .00000882  00000-0  73483-4 0  9999,2 54064  53.2179 127.0544 0001420  92.4832 267.6322 15.08847876 96890,6917.856,95.437,540.704,538.739,0.0
54064.0,STARLINK-5172,PAYLOAD,2024-07-15 02:41:35,15.08836997,0.0001441,53.2169,124.3758,87.7109,272.4048,1.7311e-05,-1.2e-07,0.0,0 STARLINK-5172,1 54064U 22136P   24197.11221980 -.00000012  00000-0  17311-4 0  9991,2 54064  53.2169 124.3758 0001441  87.7109 272.4048 15.08836997 96984,6917.89,95.438,540.751,538.758,0.0
54064.0,STARLINK-5172,PAYLOAD,2024-07-15 12:13:53,15.08856269,0.000142,53.2168,122.5913,81.0376,279.0777,0.00011777,1.588e-05,0.0,0 STARLINK-5172,1 54064U 22136P   24197.50964221  .00001588  00000-0  11777-3 0  9993,2 54064  53.2168 122.5913 0001420  81.0376 279.0777 15.08856269 97040,6917.831,95.437,540.678,538.713,0.0
54064.0,STARLINK-5172,PAYLOAD,2024-07-16 04:07:45,15.08845126,0.0001192,53.2166,119.6172,100.2607,259.852,3.9418e-05,3.4e-06,0.0,0 STARLINK-5172,1 54064U 22136P   24198.17205307  .00000340  00000-0  39418-4 0  9998,2 54064  53.2166 119.6172 0001192 100.2607 259.8520 15.08845126 97142,6917.865,95.437,540.554,538.905,0.0
54064.0,STARLINK-5172,PAYLOAD,2024-07-17 00:47:46,15.08840118,0.0001301,53.217,115.7484,92.6313,267.4828,1.4656e-05,-5.5e-07,0.0,0 STARLINK-5172,1 54064U 22136P   24199.03317915 -.00000055  00000-0  14656-4 0  9994,2 54064  53.2170 115.7484 0001301  92.6313 267.4828 15.08840118 97276,6917.88,95.438,540.645,538.845,0.0
54064.0,STARLINK-5172,PAYLOAD,2024-07-17 11:55:27,15.08854394,0.0001315,53.2166,113.6681,116.8712,243.2414,6.5996e-05,7.63e-06,0.0,0 STARLINK-5172,1 54064U 22136P   24199.49684681  .00000763  00000-0  65996-4 0  9999,2 54064  53.2166 113.6681 0001315 116.8712 243.2414 15.08854394 97346,6917.836,95.437,540.611,538.792,0.0
54064.0,STARLINK-5172,PAYLOAD,2024-07-17 21:27:47,15.08835874,0.0001884,53.2175,111.881,115.7384,244.3803,0.00015777,2.223e-05,0.0,0 STARLINK-5172,1 54064U 22136P   24199.89429720  .00002223  00000-0  15777-3 0  9998,2 54064  53.2175 111.8810 0001884 115.7384 244.3803 15.08835874 97407,6917.893,95.438,541.061,538.455,0.0
54064.0,STARLINK-5172,PAYLOAD,2024-07-18 03:49:20,15.08839779,0.0001561,53.2169,110.6945,108.4378,251.6784,4.3816e-05,4.09e-06,0.0,0 STARLINK-5172,1 54064U 22136P   24200.15925939  .00000409  00000-0  43816-4 0  9993,2 54064  53.2169 110.6945 0001561 108.4378 251.6784 15.08839779 96967,6917.881,95.438,540.826,538.666,0.0
54064.0,STARLINK-5172,PAYLOAD,2024-07-18 21:18:35,15.08831855,0.0001576,53.2164,107.4234,99.2679,260.8491,0.0001271,1.735e-05,0.0,0 STARLINK-5172,1 54064U 22136P   24200.88790531  .00001735  00000-0  12710-3 0  9992,2 54064  53.2164 107.4234 0001576  99.2679 260.8491 15.08831855 97554,6917.905,95.438,540.861,538.68,0.0
54064.0,STARLINK-5172,PAYLOAD,2024-07-18 22:53:58,15.08832022,0.0001582,53.2168,107.1256,100.1807,259.9364,0.00011902,1.606e-05,0.0,0 STARLINK-5172,1 54064U 22136P   24200.95414551  .00001606  00000-0  11902-3 0  9994,2 54064  53.2168 107.1256 0001582 100.1807 259.9364 15.08832022 97084,6917.905,95.438,540.864,538.675,0.0
54064.0,STARLINK-5172,PAYLOAD,2024-07-19 03:40:07,15.08840105,0.0001367,53.2166,106.2336,117.1274,242.9858,1.756e-06,-2.6e-06,0.0,0 STARLINK-5172,1 54064U 22136P   24201.15286262 -.00000260  00000-0  17560-5 0  9997,2 54064  53.2166 106.2336 0001367 117.1274 242.9858 15.08840105 97113,6917.88,95.438,540.691,538.799,0.0
54064.0,STARLINK-5172,PAYLOAD,2024-07-19 22:44:42,15.0890806,0.0001775,53.2171,102.6648,94.8709,265.2486,-0.0010159,-0.0001645,0.0,0 STARLINK-5172,1 54064U 22136P   24201.94771832 -.00016450  00000-0 -10159-2 0  9999,2 54064  53.2171 102.6648 0001775  94.8709 265.2486 15.08908060 97235,6917.672,95.433,540.765,538.309,0.0
54064.0,STARLINK-5172,PAYLOAD,2024-07-20 00:20:08,15.08835056,0.0001412,53.2167,102.3687,101.3647,258.7504,0.00011202,1.495e-05,0.0,0 STARLINK-5172,1 54064U 22136P   24202.01398548  .00001495  00000-0  11202-3 0  9999,2 54064  53.2167 102.3687 0001412 101.3647 258.7504 15.08835056 97729,6917.896,95.438,540.737,538.784,0.0
54064.0,STARLINK-5172,PAYLOAD,2024-07-20 09:52:26,15.08852262,0.0001426,53.2174,100.5853,103.025,257.0902,0.00017683,2.528e-05,0.0,0 STARLINK-5172,1 54064U 22136P   24202.41141229  .00002528  00000-0  17683-3 0  9992,2 54064  53.2174 100.5853 0001426 103.0250 257.0902 15.08852262 97784,6917.843,95.437,540.694,538.721,0.0
54064.0,STARLINK-5172,PAYLOAD,2024-07-20 21:00:10,15.08823233,0.0001238,53.2165,98.5035,81.5383,278.5749,-3.5581e-05,-8.54e-06,0.0,0 STARLINK-5172,1 54064U 22136P   24202.87511990 -.00000854  00000-0 -35581-4 0  9998,2 54064  53.2165  98.5035 0001238  81.5383 278.5749 15.08823233 97851,6917.932,95.439,540.653,538.94,0.0
54064.0,STARLINK-5172,PAYLOAD,2024-07-20 22:35:33,15.08826685,0.0001386,53.2165,98.206,88.642,271.473,-4.5781e-06,-3.61e-06,0.0,0 STARLINK-5172,1 54064U 22136P   24202.94135716 -.00000361  00000-0 -45781-5 0  9991,2 54064  53.2165  98.2060 0001386  88.6420 271.4730 15.08826685 97384,6917.921,95.438,540.745,538.827,0.0
